<gpx xmlns:ns3="http://www.garmin.com/xmlschemas/TrackPointExtension/v1" xmlns="http://www.topografix.com/GPX/1/1" xmlns:xsi="http://www.w3.org/2001/XMLSchema-instance" xmlns:ns2="http://www.garmin.com/xmlschemas/GpxExtensions/v3" creator="Garmin Connect" version="1.1" xsi:schemaLocation="http://www.topografix.com/GPX/1/1 http://www.topografix.com/GPX/11.xsd">
  <extensions>
<distance>3.13</distance>
<average_hr>76.0</average_hr>
<average_speed>0.9739999771118164</average_speed>
<start_time>2026-09-26T07:47:40+00:00</start_time>
<end_time>2026-09-26T07:47:43.215000+00:00</end_time>
<moving_time>0.0</moving_time>
<elapsed_time>3.215</elapsed_time>
</extensions>
<metadata>
    <link href="connect.garmin.com">
      <text>Garmin Connect</text>
    </link>
    <time>2026-09-26T07:47:40.000Z</time>
  </metadata>
  <trk>
    <name>Sochi 徒步</name>
    <type>hiking</type>
    <trkseg>
      <trkpt lat="43.6585801653563976287841796875" lon="40.31964593566954135894775390625">
        <ele>1164.4000244140625</ele>
        <time>2026-09-26T07:47:40.000Z</time>
        <extensions>
          <ns3:TrackPointExtension>
            <ns3:hr>77</ns3:hr>
            <ns3:cad>0</ns3:cad>
          </ns3:TrackPointExtension>
        </extensions>
      </trkpt>
      <trkpt lat="43.658578656613826751708984375" lon="40.3196537308394908905029296875">
        <ele>1164.4000244140625</ele>
        <time>2026-09-26T07:47:41.000Z</time>
        <extensions>
          <ns3:TrackPointExtension>
            <ns3:hr>76</ns3:hr>
            <ns3:cad>0</ns3:cad>
          </ns3:TrackPointExtension>
        </extensions>
      </trkpt>
      <trkpt lat="43.65857035852968692779541015625" lon="40.3196651302278041839599609375">
        <ele>1164.4000244140625</ele>
        <time>2026-09-26T07:47:42.000Z</time>
        <extensions>
          <ns3:TrackPointExtension>
            <ns3:hr>75</ns3:hr>
            <ns3:cad>0</ns3:cad>
          </ns3:TrackPointExtension>
        </extensions>
      </trkpt>
    </trkseg>
  </trk>
</gpx>
