<gpx xmlns:ns3="http://www.garmin.com/xmlschemas/TrackPointExtension/v1" xmlns="http://www.topografix.com/GPX/1/1" xmlns:xsi="http://www.w3.org/2001/XMLSchema-instance" xmlns:ns2="http://www.garmin.com/xmlschemas/GpxExtensions/v3" creator="Garmin Connect" version="1.1" xsi:schemaLocation="http://www.topografix.com/GPX/1/1 http://www.topografix.com/GPX/11.xsd">
  <extensions>
<distance>2.85</distance>
<average_hr>75.0</average_hr>
<average_speed>0.8820000290870667</average_speed>
<start_time>2026-09-26T07:47:12+00:00</start_time>
<end_time>2026-09-26T07:47:15.231000+00:00</end_time>
<moving_time>3.0</moving_time>
<elapsed_time>3.231</elapsed_time>
</extensions>
<metadata>
    <link href="connect.garmin.com">
      <text>Garmin Connect</text>
    </link>
    <time>2026-09-26T07:47:12.000Z</time>
  </metadata>
  <trk>
    <name>Sochi 徒步</name>
    <type>hiking</type>
    <trkseg>
      <trkpt lat="43.65854437462985515594482421875" lon="40.3194317780435085296630859375">
        <ele>1166.5999755859375</ele>
        <time>2026-09-26T07:47:12.000Z</time>
        <extensions>
          <ns3:TrackPointExtension>
            <ns3:hr>75</ns3:hr>
            <ns3:cad>53</ns3:cad>
          </ns3:TrackPointExtension>
        </extensions>
      </trkpt>
      <trkpt lat="43.658555187284946441650390625" lon="40.3194361366331577301025390625">
        <ele>1166.5999755859375</ele>
        <time>2026-09-26T07:47:13.000Z</time>
        <extensions>
          <ns3:TrackPointExtension>
            <ns3:hr>76</ns3:hr>
            <ns3:cad>53</ns3:cad>
          </ns3:TrackPointExtension>
        </extensions>
      </trkpt>
      <trkpt lat="43.65855979733169078826904296875" lon="40.31943119131028652191162109375">
        <ele>1166.4000244140625</ele>
        <time>2026-09-26T07:47:14.000Z</time>
        <extensions>
          <ns3:TrackPointExtension>
            <ns3:hr>75</ns3:hr>
            <ns3:cad>53</ns3:cad>
          </ns3:TrackPointExtension>
        </extensions>
      </trkpt>
      <trkpt lat="43.65856667049229145050048828125" lon="40.319441668689250946044921875">
        <ele>1166.199951171875</ele>
        <time>2026-09-26T07:47:15.000Z</time>
        <extensions>
          <ns3:TrackPointExtension>
            <ns3:hr>75</ns3:hr>
            <ns3:cad>53</ns3:cad>
          </ns3:TrackPointExtension>
        </extensions>
      </trkpt>
    </trkseg>
  </trk>
</gpx>
