<gpx xmlns:ns3="http://www.garmin.com/xmlschemas/TrackPointExtension/v1" xmlns="http://www.topografix.com/GPX/1/1" xmlns:xsi="http://www.w3.org/2001/XMLSchema-instance" xmlns:ns2="http://www.garmin.com/xmlschemas/GpxExtensions/v3" creator="Garmin Connect" version="1.1" xsi:schemaLocation="http://www.topografix.com/GPX/1/1 http://www.topografix.com/GPX/11.xsd">
  <extensions>
<distance>2.66</distance>
<average_hr>75.0</average_hr>
<average_speed>0.859000027179718</average_speed>
<start_time>2026-09-26T07:32:28+00:00</start_time>
<end_time>2026-09-26T07:32:31.095000+00:00</end_time>
<moving_time>1.0</moving_time>
<elapsed_time>3.095</elapsed_time>
</extensions>
<metadata>
    <link href="connect.garmin.com">
      <text>Garmin Connect</text>
    </link>
    <time>2026-09-26T07:32:28.000Z</time>
  </metadata>
  <trk>
    <name>Sochi 徒步</name>
    <type>hiking</type>
    <trkseg>
      <trkpt lat="43.6718949861824512481689453125" lon="40.2975110895931720733642578125">
        <ele>567.5999755859375</ele>
        <time>2026-09-26T07:32:28.000Z</time>
        <extensions>
          <ns3:TrackPointExtension>
            <ns3:hr>75</ns3:hr>
            <ns3:cad>54</ns3:cad>
          </ns3:TrackPointExtension>
        </extensions>
      </trkpt>
      <trkpt lat="43.6718855984508991241455078125" lon="40.29752793721854686737060546875">
        <ele>567.5999755859375</ele>
        <time>2026-09-26T07:32:29.000Z</time>
        <extensions>
          <ns3:TrackPointExtension>
            <ns3:hr>75</ns3:hr>
            <ns3:cad>0</ns3:cad>
          </ns3:TrackPointExtension>
        </extensions>
      </trkpt>
      <trkpt lat="43.67188098840415477752685546875" lon="40.2975422702729701995849609375">
        <ele>567.79998779296875</ele>
        <time>2026-09-26T07:32:30.000Z</time>
        <extensions>
          <ns3:TrackPointExtension>
            <ns3:hr>74</ns3:hr>
            <ns3:cad>0</ns3:cad>
          </ns3:TrackPointExtension>
        </extensions>
      </trkpt>
    </trkseg>
  </trk>
</gpx>
